[{"OBJECT_NAME":"NINGXIA-1 2","OBJECT_ID":"2019-076B","EPOCH":"2026-03-09T23:24:08.353152","MEAN_MOTION":14.02042017,"ECCENTRICITY":0.00068224,"INCLINATION":45.0077,"RA_OF_ASC_NODE":263.5361,"ARG_OF_PERICENTER":35.7549,"MEAN_ANOMALY":324.3741,"EPHEMERIS_TYPE":0,"CLASSIFICATION_TYPE":"U","NORAD_CAT_ID":44780,"ELEMENT_SET_NO":999,"REV_AT_EPOCH":32393,"BSTAR":9.5801931e-5,"MEAN_MOTION_DOT":1.7e-7,"MEAN_MOTION_DDOT":0},{"OBJECT_NAME":"FENGYUN 1C DEB","OBJECT_ID":"1999-025BA","EPOCH":"2026-03-09T22:34:11.551008","MEAN_MOTION":14.08366783,"ECCENTRICITY":0.01295249,"INCLINATION":98.766,"RA_OF_ASC_NODE":73.6357,"ARG_OF_PERICENTER":288.0265,"MEAN_ANOMALY":70.6827,"EPHEMERIS_TYPE":0,"CLASSIFICATION_TYPE":"U","NORAD_CAT_ID":29760,"ELEMENT_SET_NO":999,"REV_AT_EPOCH":98320,"BSTAR":0.00028224473,"MEAN_MOTION_DOT":4.78e-6,"MEAN_MOTION_DDOT":0}]
